CCSDS_OMM_VERS = 2.0
CREATION_DATE  = 
ORIGINATOR     = 

OBJECT_NAME    = KUIPER-00200
OBJECT_ID      = 2026-030J
CENTER_NAME    = EARTH
REF_FRAME      = TEME
TIME_SYSTEM    = UTC
MEAN_ELEMENT_THEORY = SGP/SGP4

EPOCH          = 2026-03-06T02:24:31.761504
MEAN_MOTION    = 15.36896426
ECCENTRICITY   = .00014584
INCLINATION    = 51.8799
RA_OF_ASC_NODE = 236.2665
ARG_OF_PERICENTER = 221.4476
MEAN_ANOMALY   = 138.6401

EPHEMERIS_TYPE = 0
CLASSIFICATION_TYPE = U
NORAD_CAT_ID   = 67772
ELEMENT_SET_NO = 999
REV_AT_EPOCH   = 454
BSTAR          = .89737222E-3
MEAN_MOTION_DOT = .3263E-3
MEAN_MOTION_DDOT = 0

CCSDS_OMM_VERS = 2.0
CREATION_DATE  = 
ORIGINATOR     = 

OBJECT_NAME    = KUIPER-00203
OBJECT_ID      = 2026-030K
CENTER_NAME    = EARTH
REF_FRAME      = TEME
TIME_SYSTEM    = UTC
MEAN_ELEMENT_THEORY = SGP/SGP4

EPOCH          = 2026-03-06T06:00:02.000160
MEAN_MOTION    = 15.21845252
ECCENTRICITY   = .00116216
INCLINATION    = 51.8827
RA_OF_ASC_NODE = 236.2658
ARG_OF_PERICENTER = 47.3105
MEAN_ANOMALY   = 41.4429

EPHEMERIS_TYPE = 0
CLASSIFICATION_TYPE = U
NORAD_CAT_ID   = 67773
ELEMENT_SET_NO = 999
REV_AT_EPOCH   = 312
BSTAR          = -.90878226E-1
MEAN_MOTION_DOT = -.1906556E-1
MEAN_MOTION_DDOT = 0

CCSDS_OMM_VERS = 2.0
CREATION_DATE  = 
ORIGINATOR     = 

OBJECT_NAME    = KUIPER-00205
OBJECT_ID      = 2026-030L
CENTER_NAME    = EARTH
REF_FRAME      = TEME
TIME_SYSTEM    = UTC
MEAN_ELEMENT_THEORY = SGP/SGP4

EPOCH          = 2026-03-06T02:38:01.387392
MEAN_MOTION    = 15.36225890
ECCENTRICITY   = .00029273
INCLINATION    = 51.8808
RA_OF_ASC_NODE = 236.3267
ARG_OF_PERICENTER = 11.2023
MEAN_ANOMALY   = 348.9028

EPHEMERIS_TYPE = 0
CLASSIFICATION_TYPE = U
NORAD_CAT_ID   = 67774
ELEMENT_SET_NO = 999
REV_AT_EPOCH   = 454
BSTAR          = .6700079E-3
MEAN_MOTION_DOT = .23713E-3
MEAN_MOTION_DDOT = 0

CCSDS_OMM_VERS = 2.0
CREATION_DATE  = 
ORIGINATOR     = 

OBJECT_NAME    = KUIPER-00208
OBJECT_ID      = 2026-030M
CENTER_NAME    = EARTH
REF_FRAME      = TEME
TIME_SYSTEM    = UTC
MEAN_ELEMENT_THEORY = SGP/SGP4

EPOCH          = 2026-03-06T00:28:42.478176
MEAN_MOTION    = 15.32310669
ECCENTRICITY   = .00146763
INCLINATION    = 51.8834
RA_OF_ASC_NODE = 237.2206
ARG_OF_PERICENTER = 50.5276
MEAN_ANOMALY   = 309.7004

EPHEMERIS_TYPE = 0
CLASSIFICATION_TYPE = U
NORAD_CAT_ID   = 67775
ELEMENT_SET_NO = 999
REV_AT_EPOCH   = 452
BSTAR          = .47193658E-3
MEAN_MOTION_DOT = .14642E-3
MEAN_MOTION_DDOT = 0

CCSDS_OMM_VERS = 2.0
CREATION_DATE  = 
ORIGINATOR     = 

OBJECT_NAME    = KUIPER-00209
OBJECT_ID      = 2026-030N
CENTER_NAME    = EARTH
REF_FRAME      = TEME
TIME_SYSTEM    = UTC
MEAN_ELEMENT_THEORY = SGP/SGP4

EPOCH          = 2026-03-06T06:00:02.000160
MEAN_MOTION    = 15.30232485
ECCENTRICITY   = .00127993
INCLINATION    = 51.8821
RA_OF_ASC_NODE = 236.1835
ARG_OF_PERICENTER = 58.6486
MEAN_ANOMALY   = 96.7826

EPHEMERIS_TYPE = 0
CLASSIFICATION_TYPE = U
NORAD_CAT_ID   = 67776
ELEMENT_SET_NO = 999
REV_AT_EPOCH   = 395
BSTAR          = .15565586E-2
MEAN_MOTION_DOT = .46219E-3
MEAN_MOTION_DDOT = 0

CCSDS_OMM_VERS = 2.0
CREATION_DATE  = 
ORIGINATOR     = 

OBJECT_NAME    = KUIPER-00213
OBJECT_ID      = 2026-030P
CENTER_NAME    = EARTH
REF_FRAME      = TEME
TIME_SYSTEM    = UTC
MEAN_ELEMENT_THEORY = SGP/SGP4

EPOCH          = 2026-03-05T22:55:39.388800
MEAN_MOTION    = 15.32596197
ECCENTRICITY   = .00149423
INCLINATION    = 51.8803
RA_OF_ASC_NODE = 237.5273
ARG_OF_PERICENTER = 54.0972
MEAN_ANOMALY   = 306.1397

EPHEMERIS_TYPE = 0
CLASSIFICATION_TYPE = U
NORAD_CAT_ID   = 67777
ELEMENT_SET_NO = 999
REV_AT_EPOCH   = 451
BSTAR          = .97697323E-3
MEAN_MOTION_DOT = .31067E-3
MEAN_MOTION_DDOT = 0

CCSDS_OMM_VERS = 2.0
CREATION_DATE  = 
ORIGINATOR     = 

OBJECT_NAME    = KUIPER-00214
OBJECT_ID      = 2026-030Q
CENTER_NAME    = EARTH
REF_FRAME      = TEME
TIME_SYSTEM    = UTC
MEAN_ELEMENT_THEORY = SGP/SGP4

EPOCH          = 2026-03-06T02:28:35.088096
MEAN_MOTION    = 15.36573742
ECCENTRICITY   = .00004912
INCLINATION    = 51.8837
RA_OF_ASC_NODE = 236.2903
ARG_OF_PERICENTER = 202.4818
MEAN_ANOMALY   = 157.6148

EPHEMERIS_TYPE = 0
CLASSIFICATION_TYPE = U
NORAD_CAT_ID   = 67778
ELEMENT_SET_NO = 999
REV_AT_EPOCH   = 454
BSTAR          = .65509064E-3
MEAN_MOTION_DOT = .23438E-3
MEAN_MOTION_DDOT = 0

CCSDS_OMM_VERS = 2.0
CREATION_DATE  = 
ORIGINATOR     = 

OBJECT_NAME    = KUIPER-00215
OBJECT_ID      = 2026-030R
CENTER_NAME    = EARTH
REF_FRAME      = TEME
TIME_SYSTEM    = UTC
MEAN_ELEMENT_THEORY = SGP/SGP4

EPOCH          = 2026-03-06T06:21:51.901056
MEAN_MOTION    = 15.34321882
ECCENTRICITY   = .0010062
INCLINATION    = 51.8846
RA_OF_ASC_NODE = 235.8680
ARG_OF_PERICENTER = 50.2698
MEAN_ANOMALY   = 309.9173

EPHEMERIS_TYPE = 0
CLASSIFICATION_TYPE = U
NORAD_CAT_ID   = 67779
ELEMENT_SET_NO = 999
REV_AT_EPOCH   = 456
BSTAR          = .11362535E-2
MEAN_MOTION_DOT = .38203E-3
MEAN_MOTION_DDOT = 0

CCSDS_OMM_VERS = 2.0
CREATION_DATE  = 
ORIGINATOR     = 

OBJECT_NAME    = KUIPER-00218
OBJECT_ID      = 2026-030S
CENTER_NAME    = EARTH
REF_FRAME      = TEME
TIME_SYSTEM    = UTC
MEAN_ELEMENT_THEORY = SGP/SGP4

EPOCH          = 2026-03-06T06:07:30.658080
MEAN_MOTION    = 15.35027106
ECCENTRICITY   = .00066577
INCLINATION    = 51.8839
RA_OF_ASC_NODE = 235.8022
ARG_OF_PERICENTER = 41.3580
MEAN_ANOMALY   = 318.7909

EPHEMERIS_TYPE = 0
CLASSIFICATION_TYPE = U
NORAD_CAT_ID   = 67780
ELEMENT_SET_NO = 999
REV_AT_EPOCH   = 456
BSTAR          = .71200553E-3
MEAN_MOTION_DOT = .24276E-3
MEAN_MOTION_DDOT = 0

CCSDS_OMM_VERS = 2.0
CREATION_DATE  = 
ORIGINATOR     = 

OBJECT_NAME    = KUIPER-00220
OBJECT_ID      = 2026-030T
CENTER_NAME    = EARTH
REF_FRAME      = TEME
TIME_SYSTEM    = UTC
MEAN_ELEMENT_THEORY = SGP/SGP4

EPOCH          = 2026-03-06T06:16:38.186976
MEAN_MOTION    = 15.34623232
ECCENTRICITY   = .0008301
INCLINATION    = 51.8820
RA_OF_ASC_NODE = 235.8374
ARG_OF_PERICENTER = 45.3480
MEAN_ANOMALY   = 314.8181

EPHEMERIS_TYPE = 0
CLASSIFICATION_TYPE = U
NORAD_CAT_ID   = 67781
ELEMENT_SET_NO = 999
REV_AT_EPOCH   = 456
BSTAR          = .12677134E-2
MEAN_MOTION_DOT = .43087E-3
MEAN_MOTION_DDOT = 0

CCSDS_OMM_VERS = 2.0
CREATION_DATE  = 
ORIGINATOR     = 

OBJECT_NAME    = KUIPER-00222
OBJECT_ID      = 2026-030U
CENTER_NAME    = EARTH
REF_FRAME      = TEME
TIME_SYSTEM    = UTC
MEAN_ELEMENT_THEORY = SGP/SGP4

EPOCH          = 2026-03-06T06:50:31.137504
MEAN_MOTION    = 15.32431474
ECCENTRICITY   = .00171001
INCLINATION    = 51.8801
RA_OF_ASC_NODE = 235.9849
ARG_OF_PERICENTER = 53.4205
MEAN_ANOMALY   = 306.8350

EPHEMERIS_TYPE = 0
CLASSIFICATION_TYPE = U
NORAD_CAT_ID   = 67782
ELEMENT_SET_NO = 999
REV_AT_EPOCH   = 456
BSTAR          = .10246198E-2
MEAN_MOTION_DOT = .32471E-3
MEAN_MOTION_DDOT = 0

CCSDS_OMM_VERS = 2.0
CREATION_DATE  = 
ORIGINATOR     = 

OBJECT_NAME    = KUIPER-00223
OBJECT_ID      = 2026-030V
CENTER_NAME    = EARTH
REF_FRAME      = TEME
TIME_SYSTEM    = UTC
MEAN_ELEMENT_THEORY = SGP/SGP4

EPOCH          = 2026-03-06T06:26:52.339776
MEAN_MOTION    = 15.33972308
ECCENTRICITY   = .00123692
INCLINATION    = 51.8837
RA_OF_ASC_NODE = 235.8878
ARG_OF_PERICENTER = 48.7809
MEAN_ANOMALY   = 311.4240

EPHEMERIS_TYPE = 0
CLASSIFICATION_TYPE = U
NORAD_CAT_ID   = 67783
ELEMENT_SET_NO = 999
REV_AT_EPOCH   = 456
BSTAR          = .15154187E-2
MEAN_MOTION_DOT = .50635E-3
MEAN_MOTION_DDOT = 0

CCSDS_OMM_VERS = 2.0
CREATION_DATE  = 
ORIGINATOR     = 

OBJECT_NAME    = KUIPER-00225
OBJECT_ID      = 2026-030W
CENTER_NAME    = EARTH
REF_FRAME      = TEME
TIME_SYSTEM    = UTC
MEAN_ELEMENT_THEORY = SGP/SGP4

EPOCH          = 2026-03-06T04:20:20.612832
MEAN_MOTION    = 15.35752335
ECCENTRICITY   = .00042442
INCLINATION    = 51.8811
RA_OF_ASC_NODE = 236.0498
ARG_OF_PERICENTER = 31.2635
MEAN_ANOMALY   = 328.8602

EPHEMERIS_TYPE = 0
CLASSIFICATION_TYPE = U
NORAD_CAT_ID   = 67784
ELEMENT_SET_NO = 999
REV_AT_EPOCH   = 455
BSTAR          = .10025516E-2
MEAN_MOTION_DOT = .3519E-3
MEAN_MOTION_DDOT = 0

CCSDS_OMM_VERS = 2.0
CREATION_DATE  = 
ORIGINATOR     = 

OBJECT_NAME    = KUIPER-00226
OBJECT_ID      = 2026-030X
CENTER_NAME    = EARTH
REF_FRAME      = TEME
TIME_SYSTEM    = UTC
MEAN_ELEMENT_THEORY = SGP/SGP4

EPOCH          = 2026-03-06T03:59:45.826368
MEAN_MOTION    = 15.31135927
ECCENTRICITY   = .0019783
INCLINATION    = 51.8803
RA_OF_ASC_NODE = 236.6875
ARG_OF_PERICENTER = 62.6659
MEAN_ANOMALY   = 297.6336

EPHEMERIS_TYPE = 0
CLASSIFICATION_TYPE = U
NORAD_CAT_ID   = 67785
ELEMENT_SET_NO = 999
REV_AT_EPOCH   = 454
BSTAR          = -.10307011E-2
MEAN_MOTION_DOT = -.31897E-3
MEAN_MOTION_DDOT = 0

CCSDS_OMM_VERS = 2.0
CREATION_DATE  = 
ORIGINATOR     = 

OBJECT_NAME    = KUIPER-00259
OBJECT_ID      = 2026-030Y
CENTER_NAME    = EARTH
REF_FRAME      = TEME
TIME_SYSTEM    = UTC
MEAN_ELEMENT_THEORY = SGP/SGP4

EPOCH          = 2026-03-06T06:10:31.376640
MEAN_MOTION    = 15.34934409
ECCENTRICITY   = .00082851
INCLINATION    = 51.8815
RA_OF_ASC_NODE = 235.8084
ARG_OF_PERICENTER = 39.9302
MEAN_ANOMALY   = 320.2292

EPHEMERIS_TYPE = 0
CLASSIFICATION_TYPE = U
NORAD_CAT_ID   = 67786
ELEMENT_SET_NO = 999
REV_AT_EPOCH   = 456
BSTAR          = .10177187E-2
MEAN_MOTION_DOT = .34823E-3
MEAN_MOTION_DDOT = 0

